LIBRARY_SYSTEM,LOCATION,BRANCH_UNIQUE_ID,SCHOOL_DISTRICT_SERVED,PHONE,PHYSICAL_ADDRESS,CITY,PROVINCE,POSTAL_CODE,LATITUDE,LONGITUDE,MTLS_OUTLET,MTLS_CIRC_B,CIRC_CHILD_MTLS_B,REF_TRANS_B,VISITS_B,AD_INLIB_PGMS_B ,AD_OUT_PGMS_B ,ADULT_ATTEND_B ,CH_INLIB_PGMS_B ,CH_OUT_PGMS_B ,CHILD_ATTEND_B ,YA_INLIB_PGMS_B ,YA_OUT_PGMS_B ,YA_ATTEND_B ,ESL_INLIB_PGMS_B ,ESL_OUT_PGMS_B ,ESL_ATTEND_B ,LIBRARIAN_HRS_B ,LIB_TECH_HRS_B ,COMM_LIB_HRS_B ,OTH_HRS_B ,branch_copiers ,LEED_CERT_B ,SHRD_FAC ,FLOORSPACE ,HRS_OPEN ,DAYS_OPEN 
Alert Bay Public Library & Museum,Alert Bay Public Library & Museum,BABM001,85,(250) 974-5721,116 Fir Street,Alert Bay,BC,V0N 1A0,50.58482263,-126.9289784,9361,2460,193,1700,3522,0,1,22,0,3,235,0,0,0,0,0,0,0,0,622,281,1,,,213.36,618,191
Beaver Valley Public Library,Beaver Valley Public Library,BFBV001,20,(250) 367-7114,1847 - 1st Street,Fruitvale,BC,V0G 1L0,49.11296561,-117.5514546,25477,19792,4737,10000,14750,8,2,202,100,10,1208,0,0,0,0,0,0,0,0,4940,1350,1,No,No,270,2320,321
Bowen Island Public Library,Bowen Island Public Library,BBI001,45,(604) 947-9788,430 Bowen Island Trunk,Bowen Island,BC,V0N 1G0,49.3799063,-123.3340368,15100,36155,15964,8217,52690,499,0,1381,94,5,1224,0,0,0,0,0,0,1820,0,0,4107,1,No,Yes,407,1953,303
Burnaby Public Library,Bob Prittie Metrotown Branch,BB001,41,(604) 436-5427,6100 Willingdon Avenue,Burnaby,BC,V5H 4N5,49.22830117,-123.0063419,"373,232","1,139,184","476,345","107,784","749,695",58,101,"3,865",402,39,"19,522",12,84,"2,923",26,0,528,"42,224","1,733",,"104,199",4,No,No,"5,673.00","3,612",339
Burnaby Public Library,Cameron Library & Recreation Centre,BB002,41,(604) 421-5454,9523 Cameron Street,Burnaby,BC,V3J 1L6,49.25381414,-122.898601,"59,958","454,254","227,553","20,436","247,701",50,8,"1,067",221,18,"11,112",4,0,38,11,0,78,"6,834",,,"16,311",1,No,Yes,465,"2,901",341
Burnaby Public Library,McGill Branch,BB003,41,(604) 299-8955,4595 Albert St,Burnaby,BC,V5C 2G6,49.28269631,-123.0007129,"163,916","828,445","405,519","28,298","440,899",108,1,"2,843",280,31,"14,371",20,0,190,6,0,113,"12,762",,,"29,319",1,No,No,"1,860.00","3,329",341
Burnaby Public Library,Tommy Douglas Library,BB004,41,(604) 522-3971,7311 Kingsway,Burnaby,BC,V5E 1G8,49.21872224,-122.9523712,"90,645","564,075","307,675","42,845","387,327",163,18,"3,044",177,42,"10,501",4,0,81,43,0,484,"10,520",,,"26,956",1,Yes,No,"1,627.50","3,329",341
Burns Lake Public Library,Burns Lake Public Library,BBUL001,91,(250) 692-3192,585 Government Street,Burns Lake,BC,V0J 1E0,54.23326673,-125.7654673,44271,49526,12936,,,7,0,,135,5,1396,10,0,52,0,0,,0,0,2402,8457,2,No,No,684,,298
Cariboo Regional District Library System,100 Mile House Branch,BWLC001,27,(250) 395-2332,449 S. Birch Avenue,100 Mile House,BC,V0K 2E0,51.64144163,-121.2954417,"36,997","96,788","15,217","14,230","75,518",1,15,59,275,0,"1,257",1,0,19,0,0,0,0,"3,640",0,"7,778",1,No,No,815,"2,194",239
Cariboo Regional District Library System,Alexis Creek Branch,BWLC002,27,(250) 394-4346,7651 Yells Road,Alexis Creek,BC,V0L 1A0,52.08563976,-123.275659,"6,054",954,219,80,675,4,0,10,1,0,6,0,0,0,0,0,0,0,0,0,416,1,No,Yes,15,388,97
Cariboo Regional District Library System,Anahim Lake Branch,BWLC003,27,(250) 742- 2056,"Unit #1 - 2409 Whispering Pines Trailer Court, Hwy 20",Anahim Lake,BC,V0L 1C0,52.46063019,-125.3052662,"4,592",683,29,12,658,0,0,0,0,0,0,0,0,0,0,0,0,0,0,0,416,1,No,No,89,402,102
Cariboo Regional District Library System,Big Lake Branch,BWLC004,59,(250) 243-2355,4056 Lakeview Rd,Big Lake,BC,V0L 1G0,52.37852508,-121.8775774,"7,380","5,082","1,663",501,"2,058",0,0,0,0,0,0,0,0,0,0,0,0,0,0,0,624,1,No,Yes,28,536,104
Cariboo Regional District Library System,Forest Grove Branch,BWLC006,27,(250 593-4545,4485 Eagle Creek Road,Forest Grove,BC,V0K 1M0,51.77031373,-121.0968755,"5,444","2,309",315,569,"2,617",0,0,0,0,0,0,0,0,0,0,0,0,0,0,0,624,1,No,No,96,468,117
Cariboo Regional District Library System,Horsefly Branch,BWLC007,27,(250) 397-2927,5779 Walters Drive,Horsefly,BC,V0L 1L0,52.333719,-121.420555,"4,400","3,163",129,55,"1,510",0,0,0,0,0,0,0,0,0,0,0,0,0,0,0,520,1,No,Yes,76,500,100
Cariboo Regional District Library System,Interlakes Branch,BWLC005,27,(250) 620-3345,7170 Levick Crescent,Lone Butte,BC,V0K 1X1,51.546972,-120.91323,"6,750","5,665",784,358,"3,215",0,0,0,0,0,0,0,0,0,0,0,0,0,0,0,624,1,No,No,89,624,156
Cariboo Regional District Library System,Lac La Hache Branch,BWLC008,27,(250) 396-7642,4787 Clark Avenue,Lac La Hache,BC,V0K 1T0,51.8186098,-121.48234,"6,419","1,135",136,10,484,0,0,0,0,0,0,0,0,0,0,0,0,0,0,0,620,1,No,Yes,89,495,99
Cariboo Regional District Library System,Likely Branch,BWLC009,27,(250) 790-2234,6163 Keithly Creek Road,Likely,BC,V0L 1N0,52.61655923,-121.5584552,"7,298","2,070",932,0,"1,211",0,0,0,65,0,565,0,0,0,0,0,0,0,0,0,419,1,No,No,89,408,102
Cariboo Regional District Library System,McLeese Lake Branch,BWLC010,27,(250) 297-6533,6749 Highway 97 N,McLeese Lake,BC,V0L 1P0,52.42502225,-122.3097044,"4,038","1,186",45,4,"1,013",0,0,0,0,0,0,0,0,0,0,0,0,0,0,0,520,1,No,No,96,390,78
Cariboo Regional District Library System,Nazko Branch,BWLC011,28,(250) 249-5289,1351 Palmer Road,Quesnel,BC,V2J 3H9,52.92677823,-123.5577776,"7,935","1,990",261,0,893,0,0,0,0,0,0,0,0,0,0,0,0,0,0,0,416,1,No,No,71,368,92
Cariboo Regional District Library System,Quesnel Branch,BWLC012,28,(250) 992-7912,101 - #410 Kinchant Street,Quesnel,BC,V2J 7J5,52.979328,-122.493927,"66,598","97,349","19,676","8,641","54,236",45,6,644,163,0,"1,755",1,0,3,0,0,0,"1,820","1,820",0,"8,402",1,No,Yes,"1,171.00","2,288",260
Cariboo Regional District Library System,Tatla Lake Branch,BWLC013,27,(250) 476-3424,16451 Chilcotin Highway 20,Tatla Lake,BC,V0L 1V0,51.9051198,-124.5998194,"6,238","3,017",566,132,"1,641",4,0,17,16,0,126,0,0,0,0,0,0,0,0,0,624,1,No,Yes,56,612,102
Cariboo Regional District Library System,Wells Branch,BWLC014,28,(250) 994-3424,4269 Saunders Avenue,Wells,BC,V0K 2R0,53.104898,-121.572226,"8,100","1,375",269,347,"1,141",5,0,13,0,3,60,0,1,4,0,0,0,0,0,0,624,1,No,Yes,84,624,208
Cariboo Regional District Library System,Williams Lake Branch,BWLC015,27,(250) 392-3630,Suite A - 180 North 3rd Avenue,Williams Lake,BC,V2G 2A4,52.13077538,-122.1423079,"75,763","118,264","28,755","4,010","160,319",37,26,383,145,17,"2,015",10,0,56,0,0,0,"1,820","1,820",0,"8,792",1,No,Yes,998,"2,204",250
Castlegar & District Public Library,Castlegar & District Public Library,BCD001,20,(250) 365-6611,1005 Third Street,Castlegar,BC,V1N 2A2,49.32664889,-117.6635686,75228,119509,45595,2365,87699,80,49,497,173,100,3690,14,0,77,73,0,690,1820,3990,4620,1909,1,No,No,1222,2864,326
Chetwynd Public Library,Chetwynd Public Library,BCHE001,59,(250) 788-2559,5012 - 46th Street,Chetwynd,BC,V0C 1J0,55.69513649,-121.6133566,28674,24157,12028,12547,59168,,25,1002,258,13,2318,,0,,0,0,,,,7348,3632,1,No,No,724,3133,349
Coquitlam Public Library,City Centre Branch,BCOQ001,43,(604) 554-7323,1169 Pinetree Way,Coquitlam,BC,V3B 0Y1,49.28109578,-122.7926751,"85,271","549,829","298,108","27,615","572,820",335,19,"8,658",364,87,"28,944",80,3,"2,685",279,24,"8,164","10,032","1,423",,"23,511",3,No,No,"3,205.00","3,630",357
Coquitlam Public Library,Poirier Branch,BCOQ002,43,,575 Poirier Street,Coquitlam,BC,V3J 6A9,49.25349865,-122.8456723,"2,607","38,437","35,361",,"12,163",,,,,,,,,,,,,,,,"3,346",0,No,No,12,715,204
Cranbrook Public Library,Cranbrook Public Library,BCR001,43,(604) 937-4141,1212 2nd Street N,Cranbrook,BC,V1C 4T6,49.51424132,-115.7638234,"71,823","481,970","222,219","22,062","292,334",85,21,"1,854",146,85,"12,513",44,5,"1,760",74,36,"2,092","14,476","4,261",,"33,851",4,No,No,"2,200.00","3,422",344
Creston Public Library Association,Creston Public Library Association,BCRE001,5,(250) 426-4063,531 - 16th Avenue S,Creston,BC,V0B 1G5,49.0896777,-116.5060845,71830,150024,48860,11363,131858,271,32,1914,394,5,"8,955",11,0,79,,,,2870,1476,2912,14094,2,No,Yes,1298,3404,351
Dawson Creek Municipal Public Library,Dawson Creek Municipal Public Library,BDC001,8,(250) 428-4141,1001 McKellar Avenue,Dawson Creek,BC,V1G 4W7,55.75364362,-120.23496,37856,104365,30391,,84525,125,29,1616,236,43,4896,23,6,128,0,0,0,1680,0,0,6692,1,No,Yes,836,1950,260
Elkford Public Library,Elkford Public Library,BELK001,59,(250) 782-4661,816 Michel Road,Elkford,BC,V0B 1H0,50.02300688,-114.921316,69638,58484,4846,5400,,50,3,635,102,7,1836,2,1,59,0,0,0,0,3900,0,10686,2,No,No,939,2741,349
Fernie Public Library,Fernie Public Library,BF001,5,(250) 865-2912,492 Third Avenue,Fernie,BC,V0B 1M0,49.503354,-115.06284,27535,6907,3586,2253,7300,5,3,154,5,1,105,3,1,49,0,0,0,0,0,2009,1750,2,No,Yes,252,1683,255
Fort Nelson Public Library,Fort Nelson Public Library,BFN001,5,(250) 423-4458,5315 - 50th Avenue S,Fort Nelson,BC,V0C 1R0,58.80384258,-122.7064804,38684,52453,26313,26450,65050,54,98,2480,318,45,11397,8,4,67,2,2,20,0,0,4800,1800,1,No,No,810,2200,275
Fort St. James Centennial Library,Fort St. James Centennial Library,BFSJA001,81,(250) 774-6777,425 Manson Street,Fort St. James,BC,V0J 1P0,54.44438006,-124.2565265,37513,42990,17140,1039,27906,36,4,511,130,8,1782,18,0,254,0,0,0,1820,0,0,6682,2,No,No,655,2402,333
Fort St. John Public Library Association,Fort St. John Public Library Association,BFSJ001,91,(250) 996-7431,10015 - 100th Avenue,Fort St. John,BC,V1J 1Y7,56.2460162,-120.8480297,16650,16781,3706,5600,19976,12,1,99,66,1,795,0,0,0,0,0,,1924,0,1820,1807,2,No,No,372,1510,241
Fraser Lake Public Library,Fraser Lake Public Library,BFRL001,60,(250) 785-3731,280 Endako Avenue,Fraser Lake,BC,V0J 1S0,54.05622365,-124.8490976,61930,107981,54988,,79769,5,1,3662,,108,9877,,,,1,,,2080,1560,0,12566,1,No,Yes,720,2441,289
Fraser Valley Regional Library,Abbotsford Community Library,BABF016,91,(250) 699-8888,33660 South Fraser Way,Abbotsford,BC,V2S 2B9,49.04850436,-122.2923684,22595,9062,2045,2600,6800,60,16,544,79,9,1077,0,0,0,0,0,0,0,0,0,4495,,No,No,3600,1664,260
Fraser Valley Regional Library,Agassiz Library,BABF002,34,(604) 853-1753,7140 Cheam Ave,Agassiz,BC,V0M 1A0,49.23788694,-121.7627376,"37,013","322,003","150,521","9,092","156,573",79,23,"3,679",54,23,"3,410",3,0,62,2,1,62,"1,820","4,121",0,"10,125",2,No,Yes,"1,022.00","3,061",345
Fraser Valley Regional Library,Aldergrove Library,BABF003,34,1 (888) 668-4141,26770-29th Avenue,Aldergrove,BC,V4W 3B8,49.05506594,-122.4828672,"30,774","107,980","3,465",,,1,147,"5,807",0,1,5,,1,45,,,,"26,153","9,756",0,"69,074",6,No,No,"2,521.00","2,229",249
Fraser Valley Regional Library,Boston Bar Library,BABF004,78,(604) 796-9510,47643 Old Boston Bar Road,Boston Bar,BC,V0K 1C0,49.8615251,-121.4407783,"19,215","77,886","21,028","1,856","58,656",54,15,"1,804",35,15,"1,884",4,1,86,,,,221,"2,317",0,"3,268",2,No,No,418,"2,024",257
Fraser Valley Regional Library,Brookswood Library,BABF005,35,(604) 856-6415,20045 - 40th Avenue,Langley,BC,V3A 2W2,49.07501006,-122.6682803,"25,669","139,893","56,469","5,332","90,898",80,4,"2,675",66,13,"1,984",4,0,43,3,0,11,625,"3,827",0,"4,276",2,No,No,372,"2,885",301
Fraser Valley Regional Library,Chilliwack Library,BABF006,78,(604) 867-8847,45860 First Avenue,Chilliwack,BC,V2P 7K1,49.16760962,-121.9557807,"9,642","12,419","3,024","2,899","3,341",19,9,371,6,1,109,1,0,7,,,,52,0,0,978,1,No,No,93,618,103
Fraser Valley Regional Library,Clearbrook Library,BABF008,35,(604) 534-7055,32320 George Ferguson Way,Abbotsford,BC,V2T 6N4,49.05409388,-122.3289016,"14,663","69,723","29,125","5,161","42,177",28,0,331,73,2,"2,525",1,0,23,0,0,0,0,"2,849",0,"2,083",1,No,No,186,"2,021",257
Fraser Valley Regional Library,Fort Langley Library,BABF009,33,(604) 792-1941,9167 Glover Road,Fort Langley,BC,V1M 2R6,49.16914403,-122.5799168,"60,893","482,372","157,026","20,921","261,062",372,4,"8,075",200,26,"7,342",18,1,315,62,0,772,"4,360","7,239",0,"16,809",2,No,No,"1,440.00","3,111",345
Fraser Valley Regional Library,George Mackie Library,BABF010,34,(604) 859-7814,8440 - 112th Street,Delta,BC,V4C 4W9,49.15642869,-122.9117991,"78,932","743,452","314,467","28,468","314,468",240,14,"5,561",312,54,"15,607",20,1,808,35,0,701,"7,165","14,224",0,"17,270",3,No,No,"1,858.00","3,137",345
Fraser Valley Regional Library,Hope Library,BABF011,35,(604) 888-0722,1005 - 6th Avenue,Hope,BC,V0X 1L0,49.377998,-121.431461,"10,276","46,238","18,279","1,948","32,741",65,2,"1,610",46,4,"1,258",2,0,45,,,,11,108,0,"2,819",1,No,Yes,84,"1,715",257
Fraser Valley Regional Library,Ladner Pioneer Library,BABF012,37,(604) 594-8155,4683 - 51st Street,Delta,BC,V4K 2V8,49.08793887,-123.0830688,"45,559","276,939","115,136","15,423","94,796",238,8,"4,501",229,34,"9,162",21,4,948,63,0,318,"5,146","8,001",0,"9,155",2,No,No,"1,059.00","3,101",345
Fraser Valley Regional Library,Langley City Library,BABF007,78,(604) 869-2313,20399 Douglas Crescent,Langley,BC,V3A 4B3,49.10397553,-122.6570017,"16,776","74,165","18,173","4,672","51,611",135,12,"3,351",60,23,"2,563",2,2,125,,,,221,"1,937",0,"2,179",2,No,Yes,325,"1,897",301
Fraser Valley Regional Library,Maple Ridge Public Library,BABF013,37,(604) 946-6215,130 - 22470 Dewdney Trunk Road,Maple Ridge,BC,V2X 5Z6,49.21987606,-122.5996759,"29,222","204,195","59,603","1,743","181,428",230,8,"3,544",286,16,"6,978",5,1,257,47,0,318,"1,519","4,207",0,"7,331",2,No,No,"1,115.00","3,101",345
Fraser Valley Regional Library,Mission Library,BABF014,35,(604) 514-2850,33247 - 2nd Avenue,Mission,BC,V2V 1J7,49.13560179,-122.3036234,"30,722","206,285","66,012","14,462","221,260",179,11,"3,472",141,47,"5,288",5,0,48,7,0,119,"2,718","5,681",0,"9,843",2,No,Yes,"1,526.00","3,277",345
Fraser Valley Regional Library,Mount Lehman Library,BABF015,42,(604) 467-7417,5875 Mt. Lehman Road,Abbotsford,BC,V4X 1V5,49.10899643,-122.382596,"68,974","455,878","169,746","36,802","376,844",231,12,"7,347",225,82,"23,205",76,6,"1,178",83,0,776,"9,025","15,481",0,"12,250",3,No,Yes,"3,429.00","3,221",345
Fraser Valley Regional Library,Muriel Arnason Library,BABF017,75,(604) 826-6610,130 - 20338 65th Avenue,Langley,BC,V2Y 2X3,49.12036825,-122.659476,"49,844","325,040","115,425","5,228","176,892",122,9,"2,764",169,69,"11,454",16,0,317,,,,"2,277","8,781",0,"8,075",2,No,No,"1,394.00","3,029",345
Fraser Valley Regional Library,Murrayville Library,BABF018,34,(604) 856-4988,Unit 100 - 22071 48th Avenue,Langley,BC,V3A 3N1,49.08963608,-122.6119881,"4,942","15,757","7,732",510,"5,056",54,0,524,14,0,187,3,0,10,,,,0,14,0,"1,172",1,No,Yes,46,816,205
Fraser Valley Regional Library,Pitt Meadows Public Library,BABF019,35,(604) 532-3590,12047 Harris Road,Pitt Meadows,BC,V3Y 1Z2,49.22214401,-122.6901537,"31,787","221,130","117,265","5,930","93,881",74,2,"2,523",113,35,"5,577",3,0,81,7,0,103,"3,659","3,054",0,"6,137",2,No,No,530,"3,061",345
Fraser Valley Regional Library,Sardis Library,BABF020,35,(604) 533-0339,5819 Tyson Road,Sardis,BC,V2R 3R6,49.10770445,-121.9775774,"27,705","168,357","62,493","3,394","82,849",166,1,"1,595",56,4,"2,533",1,0,57,,,,"3,550","1,903",0,"6,591",2,No,No,768,"3,029",345
Fraser Valley Regional Library,Terry Fox Library,BABF021,42,(604) 465-4113,2470 Mary Hill Road,Port Coquitlam,BC,V3C 3B1,49.26057482,-122.777959,"24,270","130,480","52,270","7,600","101,920",131,8,"3,435",184,28,"6,373",8,1,87,41,0,228,"3,078","2,132",0,"8,085",2,No,Yes,"1,059.00","2,944",345
Fraser Valley Regional Library,Tsawwassen Library,BABF022,33,(604) 858-5503 ,1321A - 56th Street,Delta,BC,V4L 2A6,49.02660326,-123.0710408,"38,960","371,307","162,588","6,488","158,808",307,4,"4,707",207,60,"10,912",8,2,"1,024",79,0,987,"1,815","3,249",0,"10,394",2,No,No,975,"3,111",345
Fraser Valley Regional Library,Walnut Grove Library,BABF023,43,(604) 927-7999,8889 Walnut Grove Drive,Langley,BC,V1M 2N7,49.16324797,-122.6411765,"50,481","327,311","125,181","10,420","179,296",195,48,"6,621",203,121,"15,396",28,0,684,49,0,552,"4,422","7,979",0,"9,455",2,No,No,"1,394.00","2,939",345
Fraser Valley Regional Library,White Rock Library,BABF024,37,(604) 943-2271,15342 Buena Vista Avenue,White Rock,BC,V4B 1Y6,49.02354665,-122.7973412,"29,395","215,678","61,903","10,759","412,568",302,7,"4,255",228,18,"6,984",17,2,621,10,0,98,"1,879","4,732",0,"7,804",2,No,No,736,"3,101",345
Fraser Valley Regional Library,Yale Library,BABF025,35,(604) 882-0410,65050 Albert Street,Yale,BC,V0K 2S0,49.56459139,-121.4299065,"31,785","304,185","170,750","10,236","225,303",28,1,885,98,18,"4,308",3,0,75,17,0,68,"3,325","3,887",0,"7,472",2,No,No,557,"3,229",345
Fraser Valley Regional Library,Yarrow Library,BABF026,36,(604) 541-2201,4670 Community Street,Yarrow,BC,V2R 5E1,49.08679159,-122.0516912,"29,043","179,447","21,459","7,479","113,545",280,2,"4,125",190,7,"3,583",3,0,15,,,,"1,334","5,182",0,"6,430",2,No,Yes,934,"2,749",345
Gibsons & District Public Library,Gibsons & District Public Library,BGI001,78,(604) 863-2279,470 S Fletcher Road,Gibsons,BC,V0N 1V0,49.40027197,-123.5094395,"4,476","6,452",835,"2,037","2,297",23,0,150,1,0,11,,,,,,,52,0,0,"1,052",1,No,Yes,30,552,103
Grand Forks & District Public Library,Grand Forks & District Public Library,BGF001,33,(604) 823-4664,7342 Fifth Avenue,Grand Forks,BC,V0H 1H0,49.03236938,-118.4406009,"10,363","37,090","18,657","1,197","20,902",22,2,991,88,1,"2,506",2,0,21,0,0,0,0,"1,192",0,"1,966",1,No,No,112,"1,333",206
Granisle Public Library,Granisle Public Library,BGR001,46,(604) 886-2130,#2 Village Square -  McDonald Avenue,Granisle,BC,V0J 1W0,54.88604342,-126.2062419,36891,144444,37210,1750,107641,353,22,4952,146,6,2237,28,2,173,0,0,0,1536,2805,0,9012,4,No,No,648,2358,301
Greater Victoria Public Library,Bruce Hutchison Branch,BVI001,51,(250) 442-3944,4636 Elk Lake Drive,Saanich,BC,V8Z 7K2,48.50113046,-123.3889074,29671,65519,14641,25174,72446,304,22,2984,199,8,2370,1,0,24,0,0,0,1680,,,6448,1,No,Yes,540,2298,245
Greater Victoria Public Library,Central Saanich Branch,BVI002,91,(250) 697-2713,1209 Clarke Road,Central Saanich,BC,V8M 1P8,48.57564585,-123.4481673,13290,1054,294,0,1473,1,2,30,1,1,,0,1,100,0,0,0,0,0,0,1806,1,No,Yes,119,854,248
Greater Victoria Public Library,Emily Carr Branch,BVI004,63,(250) 727-0104,3500 Blanshard Street,Saanich,BC,V8X 1W3,48.45592735,-123.373911,"63,293","368,782","154,893","10,250","236,421",21,0,"1,518",129,26,"5,531",0,0,0,0,0,0,"2,730",,,"13,468",2,No,Yes,902,"2,987",331
Greater Victoria Public Library,Esquimalt Branch,BVI005,63,(250) 652-2013,1231 Esquimalt Road,Esquimalt,BC,V9A 3P1,48.42990612,-123.413588,"29,002","160,006","51,097","8,600","114,413",32,1,484,56,26,"3,166",10,0,58,0,0,0,0,0,,"5,668",1,No,Yes,437,"2,972",331
Greater Victoria Public Library,Goudy Branch,BVI006,63,(250) 475-6100,119 - 755 Goldstream Avenue,Langford,BC,V9B 2X4,48.4483177,-123.4982857,"33,214","188,605","77,559","6,350","126,827",7,0,152,15,0,296,0,0,0,0,0,0,0,0,,"10,088",1,No,No,512,"2,684",331
Greater Victoria Public Library,Greater Victoria Public Central Library,BVI003,61,(250) 414-7198,735 Broughton Street,Victoria,BC,V8W 3H2,48.42327089,-123.3642896,"45,581","191,737","61,302","6,100","120,627",47,6,"2,139",130,47,"4,811",8,0,45,31,0,75,"1,820",,,"11,440",2,No,Yes,802,"2,837",331
Greater Victoria Public Library,Juan de Fuca Branch,BVI007,62,(250) 391-5702,1759 Island Highway,Colwood,BC,V9B 1J1,48.44782943,-123.4646693,"14,258","106,090","40,483","3,550","63,150",1,0,48,26,17,"1,241",0,0,0,1,0,17,0,0,,"3,510",1,No,Yes,190,"2,660",351
Greater Victoria Public Library,Langford Heritage Branch,BVI011,61,(250) 382-7241,102-1314 Lakepoint Way,Victoria,BC,V9B 0S2,48.44608627,-123.5342119,"164,487","664,123","194,780","44,900","603,861",399,71,"10,467",177,82,"8,078",22,6,324,3,3,43,"13,104",,,"30,524",5,No,Yes,"4,520.00","3,288",331
Greater Victoria Public Library,Nellie McClung Branch,BVI008,61,,3950 Cedar Hill Road,Saanich,BC,V8P 3Z9,48.468443,-123.335387,"19,327","138,686","38,357","12,850","139,447",3,0,185,24,0,161,12,0,73,0,0,0,0,0,,"8,372",1,No,No,665,"1,955",233
Greater Victoria Public Library,Oak Bay Branch,BVI009,62,(250) 391-0653,1442 Monterey Avenue,Oak Bay,BC,V8S 4W1,48.42584232,-123.3151035,"77,582","386,613","172,585","13,550","202,384",58,14,"1,212",185,102,"11,427",14,1,163,1,0,3,"5,486",,,"14,638",3,No,Yes,"1,792.00","2,987",331
Greater Victoria Public Library,Saanich Centennial Branch,BVI010,62,(250) 940-4875,3110 Tillicum Road,Saanich,BC,V9A 6T2,48.45404814,-123.3988527,"18,971","100,660","54,935","4,200","79,713",14,0,112,47,8,"2,331",0,0,0,0,0,0,0,0,,"4,602",1,No,Yes,387,"2,678",331
Greater Victoria Public Library,sxwenxwen tenexw James Bay Branch,BVI012,63,(250) 477-7111,385 Menzies St,Victoria,BC,V8V 0C2,48.4178365,-123.3721233,"92,467","595,575","241,310","17,750","292,695",97,26,"1,934",165,60,"7,181",42,9,"2,029",47,0,449,"3,952",,,"14,664",1,No,No,"1,274.00","2,837",331
Greenwood Public Library,Greenwood Public Library,BGRE001,61,(250) 592-2489,346 South Copper Street,Greenwood,BC,V0H 1J0,49.08774059,-118.6770042,"73,101","567,725","192,947","20,900","301,690",57,2,"1,958",165,39,"7,491",18,0,214,0,0,0,"1,820",,,"16,406",1,No,Yes,"1,056.00","2,837",331
Hazelton District Public Library,Hazelton District Public Library,BHA001,63,(250) 477-9030,4255 Government Street,Hazelton,BC,V0J 1Y0,55.2562774,-127.6772884,"58,663","349,573","146,053","5,300","206,591",36,3,829,154,55,"7,665",16,2,183,0,0,0,"2,730",,,"13,468",2,Yes,Yes,"1,163.00","2,987",331
Houston Public Library,Houston Public Library,BH001,51,(250) 445-6111,3150 - 14th Street,Houston,BC,V0J 1Z0,54.39615184,-126.6544357,11286,6925,716,2274,4350,4,4,208,58,3,573,0,0,0,0,0,0,0,0,624,415,3,No,Yes,112,993,192
Hudson's Hope Public Library,Hudson's Hope Public Library,BHH001,82,(250) 842-5961,9905 Dudley Drive,Hudson's Hope,BC,V0C 1V0,56.025816,-121.913228,29451,11005,2706,3200,8000,15,3,221,15,,371,1,0,12,0,0,,475,0,0,4741,1,No,Yes,329,1637,260
Invermere Public Library,Invermere Public Library,BIN001,54,(250) 845-2256,201 - 7th Avenue,Invermere,BC,V0A 1K0,50.5104463,-116.0298399,19347,19518,7022,3715,15574,63,4,2138,34,3,1633,0,0,0,25,0,137,0,0,2038,2704,2,No,No,495,1690,244
Kaslo & District Public Library,Kaslo & District Public Library,BKASL001,60,(250) 783-9414,413 Fourth Street,Kaslo,BC,V0G 1M0,49.91065842,-116.9049382,17300,7953,3591,150,6692,5,1,58,203,0,660,67,0,321,0,0,0,0,0,2883,2685,4,No,No,210,1701,275
Kimberley Public Library,Kimberley Public Library,BKI001,6,(250) 342-6416,115 Spokane Street,Kimberley,BC,V1A 2E5,49.686154,-115.984693,14466,39279,15518,9250,37250,118,5,1151,203,33,6855,9,1,70,0,2,8,0,0,3577,5189,1,No,Yes,316,2400,300
Kitimat Public Library Association,Kitimat Public Library Association,BKIT001,8,(250) 353-2942,940 Wakashan Avenue,Kitimat,BC,V8C 2G3,54.051291,-128.651814,16165,24356,8451,3050,14000,45,1,370,72,2,629,12,1,138,,,,0,0,1714,1343,1,No,Yes,178,1400,201
Lillooet Area Public Library,Bridge River Branch,BLP001,6,(250) 427-3112,41 Bridge River Townsite,Shalalth,BC,V0N 3B0,50.72766001,-122.2438847,37032,46753,17220,4150,,15,7,545,12,3,1512,1,1,73,0,0,,0,1950,870,3300,2,,,511,1977,250
Lillooet Area Public Library,Gold Bridge Branch,BLP002,82,(250) 632-8985,Haylmore Street,Gold Bridge,BC,V0K 1P0,50.853689,-122.83471,56882,31312,11783,12950,45606,100,2,370,57,11,1784,,,,1,,15,1820,936,0,8196,2,No,No,860,2599,304
Lillooet Area Public Library,Lillooet Public Library,BLP003,74,(250) 259-8242,Recreational Centre - 930 Main Street,Lillooet,BC,V0K 1V0,50.689633,-121.9360409,"4,741",820,,,344,,,,,19,90,,,,,,,0,0,0,388,1,No,No,56,399,99
Mackenzie Public Library,Mackenzie Public Library,BMK001,74,(250) 238-2521,400 Skeena Drive,Mackenzie,BC,V0J 2C0,55.338469,-123.091202,"4,965",955,,,"1,581",16,,22,12,,54,,,,,,,0,0,686,,1,No,Yes,51,531,154
McBride & District Public Library,Lena Schultz Reading Room,BMB001,74,(250) 256-7944,13741 Dome Creek Road,Dome Creek,BC,V0J 1H0,53.74763954,-121.0207683,"16,820","22,715",,,"14,026",3,3,56,11,75,"1,264",42,,971,1,,420,0,0,"3,823","2,822",1,No,Yes,315,"1,576",259
McBride & District Public Library,McBride & District Public Library,BMB002,57,(250) 997-6343,521 Main Street,McBride,BC,V0J 2E0,53.302879,-120.163553,23533,17210,5413,1300,28477,25,4,265,225,16,2102,1,0,10,20,0,50,1695,910,1675,2000,1,No,Yes,582,2284,276
Midway Public Library,Midway Public Library,BM001,57,250-553-2388,612 - 6th Avenue,Midway,BC,V0H 1M0,49.00635565,-118.7765932,"1,250",185,2,104,572,4,2,73,48,0,135,0,0,0,0,0,0,,,,638,1,No,Yes,22.3,255,102
Nakusp Public Library,Nakusp Public Library,BNA001,57,(250) 569-2411,92 - 6th Avenue NW,Nakusp,BC,V0G 1R0,50.24021181,-117.8055214,"16,119","21,000","5,458","2,340","18,876",134,30,"1,733",73,17,"1,057",6,4,166,0,0,0,"1,820",,"1,074","1,850",2,No,Yes,465,"1,661",251
Nelson Municipal Library,Nelson Municipal Library,BNE001,51,(250) 449-2620,602 Stanley Street,Nelson,BC,V1L 1N4,49.49039703,-117.2948882,12777,9604,1832,5823,,3,0,45,3,1,24,0,0,,0,0,0,0,0,0,2300,2,No,Yes,322,1250,200
New Westminster Public Library,New Westminster Main Branch,BNW001,10,(250) 265-3363,716 - 6th Avenue,New Westminster,BC,V3M 2B3,49.21168212,-122.92235,24183,28530,7531,1300,13000,34,2,318,61,0,798,0,0,0,2,0,2,398,0,265,2567,1,No,Yes,279,1300,298
New Westminster Public Library,Queensborough Branch,BNW002,8,(250) 352-6333,920 Ewan Ave,New Westminster,BC,V3M 5C8,49.18586768,-122.9434505,43172,180202,81849,17550,146500,29,40,1320,209,18,5928,48,16,925,6,0,53,4270,8788,1456,4004,1,No,No,1237,2500,301
North Vancouver City Library,North Vancouver City Library,BNV001,8,(250) 352-6333,120 West 14th Street,North Vancouver,BC,V7M 1N9,49.32119304,-123.0735895,43172,180202,81849,17550,146500,29,40,1320,209,18,5928,48,16,925,6,0,53,4270,8788,1456,4004,1,No,No,1237,2500,301
North Vancouver District Public Library,Capilano Branch,BNVD001,40,(604) 527-4660,3045 Highland Boulevard,North Vancouver,BC,V7R 2X4,49.33742714,-123.1029852,"153,386","515,041","185,964","34,376","250,893",21,99,"1,614",66,89,"4,938",13,16,481,0,93,"1,323","19,244",,,"32,147",3,,,"3,800.00","3,409",343
North Vancouver District Public Library,Lynn Valley Main Branch,BNVD002,40,604-636-4450,1277 Lynn Valley Road,North Vancouver,BC,V7J 2A1,49.3370647,-123.0394047,"14,663","55,494","36,883","6,568","93,342",26,,26,73,14,"1,986",9,,69,0,0,0,126,,,"3,877",1,,,222,"2,200",302
North Vancouver District Public Library,Parkgate Branch,BNVD003,44,(604) 998-3450,3675 Banff Court,North Vancouver,BC,V7H 2Z8,49.31801706,-122.9698931,139059,443411,203695,39204,479382,203,28,6369,351,144,20167,328,25,7440,83,,1854,19290,8372,14560,24206,4,Yes,No,3345,3588,344
Okanagan Regional Library District,Armstrong Branch,BKO002,44,(604) 987-4471,10 - 3305 Smith Dr.,Armstrong,BC,V0E 1B1,50.44622115,-119.185014,"77,186","353,985","149,217","36,781","206,225",89,7,"1,404",226,49,"8,735",4,0,13,4,0,72,"6,311","1,765",,"14,838",2,Yes,No,"1,114.80","3,249",332
Okanagan Regional Library District,Cherryville Branch,BKO003,44,(604) 984-0286,1114 Hwy. 6,Cherryville,BC,V0E 2G3,50.2434706,-118.6497219,"109,797","600,263","257,778","51,602","455,886",111,107,"2,638",284,40,,13,18,617,64,0,429,"28,201","9,839",,"32,751",5,Yes,No,"3,716.10","3,504",334
Okanagan Regional Library District,Enderby Branch,BKO004,44,(604) 929-3727,514 Cliff Avenue,Enderby,BC,V0E 1V0,50.550263,-119.13802,"79,224","341,615","137,490","17,365","202,163",209,,"1,890",187,94,"7,574",7,0,34,23,0,190,"6,650","1,533",,"15,218",2,No,No,"1,393.50","3,264",332
Okanagan Regional Library District,Falkland Branch,BKO005,83,(250) 546-8311,5771 Hwy 97,Falkland,BC,V0E 1W0,50.50018202,-119.5601389,"21,635","97,816","34,116","6,450","48,506",156,2,"2,061",76,30,"1,902",0,0,0,0,0,0,,,"1,662","2,602",1,No,Yes,362.22,"1,750",250
Okanagan Regional Library District,Golden Branch,BKO006,22,(250) 547-9776,819 Park Avenue,Golden,BC,V0A 1H0,51.29728429,-116.9652887,"2,350","10,627","4,090","1,000","4,843",22,1,161,5,0,121,0,0,0,0,0,0,,,488,57,0,No,Yes,68.28,400,100
Okanagan Regional Library District,Hedley Branch,BKO007,83,(250) 838-6488,789 Scott Avenue ,Hedley,BC,V0X 1K0,49.35689372,-120.0761633,"16,515","74,671","17,354","4,400","42,589",44,10,"2,221",41,2,"1,482",0,0,0,0,0,0,,,22,749,1,No,No,371.61,"1,500",200
Okanagan Regional Library District,Kaleden Branch,BKO008,83,(250) 379-2705,101 Linden Avenue,Kaleden,BC,V0H 1K0,49.38993494,-119.5954107,"3,401","15,378","4,647","3,650","8,203",28,1,257,23,2,307,0,0,0,0,0,0,,,"1,353",49,0,No,Yes,92.9,750,150
Okanagan Regional Library District,Kelowna Branch,BKO009,6,(250) 344-6516,1380 Ellis Street,Kelowna,BC,V1Y 2A2,49.88960569,-119.4940003,"11,495","51,974","15,721","4,400","29,740",55,2,424,57,2,832,0,0,0,0,0,0,,,"1,690","1,977",1,No,Yes,390.19,"1,550",200
Okanagan Regional Library District,Keremeos Branch,BKO010,53,(250) 292-8209,638 - 7th Ave,Keremeos,BC,V0X 1N0,49.20541354,-119.8232526,"1,561","7,056","1,698","1,350","3,895",1,0,14,46,0,143,0,0,0,0,0,0,,,146,,0,No,Yes,0,250,50
Okanagan Regional Library District,Lake Country Branch,BKO011,67,(250) 497-8066,2-10150 Bottom Wood Lake Road,Lake Country,BC,V4V 2M1,50.030339,-119.40189,"4,218","19,069","7,451","5,700","10,445",1,10,122,59,16,"1,670",1,0,2,0,0,0,,,"1,194",238,0,No,Yes,107.3,750,150
Okanagan Regional Library District,Lumby Branch,BKO012,23,(250) 762-2800,2250 Shields Avenue,Lumby,BC,V0E 2G0,50.25154447,-118.9625485,"61,727","279,087","104,759","37,600","239,253",866,17,"11,758",410,8,"21,013",15,0,121,55,0,567,"7,521",,243,"23,666",1,No,No,"3,534.40","2,850",324
Okanagan Regional Library District,Mission Branch,BKO013,53,(250) 499-2313,4105 Gordon Dr.,Kelowna,BC,V1W 4Z1,49.83586148,-119.4799179,"7,338","33,175","5,556","3,500","25,268",22,2,356,42,13,704,0,0,0,46,0,214,,,"1,932",936,1,No,Yes,207.45,"1,000",200
Okanagan Regional Library District,Naramata Branch,BKO014,23,(250) 766-3141,3580 Third Street,Naramata,BC,V0H 1N0,49.59676746,-119.6000207,"22,642","102,370","44,120","8,300","44,186",24,1,282,132,5,"6,066",1,0,7,0,0,0,,,"2,128","5,686",1,No,Yes,529.55,"2,000",250
Okanagan Regional Library District,North Shuswap Branch,BKO015,22,(250) 547-9528,3867 Squilax Anglemont Road,Scotch Creek,BC,V0E 1M5,50.91279716,-119.45775,"8,312","37,580","11,938","6,750","19,821",51,13,278,72,4,"1,634",3,0,0,0,0,0,,,"1,967","1,561",1,No,Yes,146.6,"1,250",250
Okanagan Regional Library District,Okanagan Falls Branch,BKO016,23,(250) 764-2254,101 - 850 Railway Lane,Okanagan Falls,BC,V0H 1R0,49.34557942,-119.57855,"66,351","299,991","134,458","21,700","148,788",62,0,396,148,2,"8,255",5,0,92,0,0,0,"1,226",,851,"13,258",1,No,Yes,817.55,"2,750",348
Okanagan Regional Library District,Oliver Branch,BKO017,67,(250) 496-5679,6239 Station Street ,Oliver,BC,V0H 1T0,49.183,-119.549147,"2,834","12,815","4,427","2,450","11,696",73,2,777,30,0,687,0,0,0,0,0,0,,,"1,122",131,0,No,Yes,160.91,650,150
Okanagan Regional Library District,Osoyoos Branch,BKO018,83,(250) 955-8198,8505 68th Avenue,Osoyoos,BC,V0H 1V0,49.029649,-119.465142,"3,194","14,441","2,420","1,600","10,880",20,0,92,17,1,333,0,0,0,0,0,0,,,"1,566",102,0,No,Yes,144.93,"1,000",200
Okanagan Regional Library District,Oyama Branch,BKO019,53,(250) 497-5886,15718 Oyama Road,Oyama,BC,V4V 2E1,50.10933235,-119.3750394,"6,386","28,871","9,334","6,300","16,399",58,0,404,46,29,"1,951",0,0,0,0,0,0,,,"1,353",863,0,No,Yes,234.95,"1,250",200
Okanagan Regional Library District,Peachland Branch,BKO020,53,(250) 498-2242,40 - 5500 Clements Crescent,Peachland,BC,V0H 1X5,49.78469219,-119.7160547,"17,284","78,148","19,027","6,000","48,034",46,2,442,178,12,"3,963",0,0,0,23,0,90,,,"1,804","2,775",1,No,Yes,492.39,"1,750",250
Okanagan Regional Library District,Princeton Branch,BKO021,,,107 Vermillion Avenue,Princeton,BC,V0X 1W0,49.46009322,-120.5084706,"3,470","15,688",,,,,,,,,,,,,,,,"5,945","1,806",,"60,059",6,No,No,"2,601.00","1,944",243
Okanagan Regional Library District,Revelstoke Branch,BKO022,53,(250) 495-7637,605 Campbell Avenue,Revelstoke,BC,V0E 2S0,50.997035,-118.200319,"14,531","65,701","15,980","12,300","44,348",38,14,622,150,26,"3,921",0,0,0,11,0,75,,,"1,971","4,374",1,No,Yes,298.5,"1,500",250
Okanagan Regional Library District,Rutland Branch,BKO023,23,(250) 548-3377,20 - 301 Hwy. 33 W,Kelowna,BC,V1X 1X8,49.88846667,-119.3904026,"1,426","6,446","3,400","1,300","4,558",6,0,37,26,1,"1,046",0,0,0,0,0,0,,,297,305,0,No,Yes,57.14,400,100
Okanagan Regional Library District,Salmon Arm Branch,BKO024,23,(250) 767-9111,1151 - 10th Avenue SW,Salmon Arm,BC,V1E 1T3,50.69445192,-119.2985284,"8,316","37,601","12,165","7,100","28,465",134,0,"1,214",98,24,"2,347",0,0,0,0,0,0,,,"1,625","1,962",1,No,Yes,274.06,"1,450",250
Okanagan Regional Library District,Sicamous Branch,BKO025,58,(250) 295-6495,#2 - 446 Main Street ,Sicamous,BC,V0E 2V0,50.83676231,-118.9826495,"7,078","32,003","6,551","6,550","28,789",58,8,"2,299",24,0,417,1,0,12,0,0,0,,,"1,104","1,040",0,No,Yes,208.01,"1,000",204
Okanagan Regional Library District,Silver Creek Branch,BKO026,19,(250) 837-5095,921 Salmon River Road,Salmon Arm,BC,V1E 3G3,50.59205592,-119.3641664,"18,371","83,059","43,885","4,600","68,895",153,1,716,169,2,"3,657",26,0,205,0,0,0,,,"1,898","2,391",1,No,Yes,318.66,"1,750",250
Okanagan Regional Library District,South Shuswap Branch,BKO027,23,(250) 765-8165,2676 Fairway Hills Rd  Unit 1,Blind Bay,BC,V0E 1H2,50.87137657,-119.3835834,"48,649","219,954","87,971","11,300","130,364",58,7,906,165,17,"7,687",14,0,164,12,0,55,866,,"1,251","11,617",1,No,Yes,596.81,"2,400",300
Okanagan Regional Library District,Summerland Branch,BKO028,83,(250) 832-6161,9525 Wharton Street,Summerland,BC,V0H 1Z0,49.60119716,-119.6801358,"50,937","230,302","74,170","31,450","138,949",114,0,839,137,72,"10,210",0,0,0,0,0,0,"3,814",,14,"8,527",1,No,Yes,839.56,"2,400",300
Okanagan Regional Library District,UBC Okanagan Branch,BKO032,83,(250) 836-4845,LIB 125 - 3287 University Way,Kelowna,BC,V1V1V7,49.940058,-119.395682,"7,979","36,077","8,391","1,600","21,658",80,8,"1,611",90,10,"1,889",0,0,0,0,0,0,,,"1,263","2,150",0,No,Yes,239.41,"1,250",200
Okanagan Regional Library District,Vernon Branch,BKO029,83,(250) 832-4719,3001 - 32nd Avenue,Vernon,BC,V1T 2L8,50.26346679,-119.2681841,"2,202","9,957","3,192","2,700","6,507",44,0,239,42,0,678,0,0,0,0,0,0,,,703,20,0,No,Yes,85.56,400,100
Okanagan Regional Library District,Westbank Branch,BKO030,83,(250) 675-4818 ,2484 Highway 97 S,West Kelowna,BC,V4T 2G2,49.83101485,-119.6299208,"11,584","52,374","15,975","7,300","33,956",72,3,"1,770",97,5,"3,159",0,0,0,0,0,0,,,"1,622","2,711",0,No,Yes,317.73,"1,700",250
Okanagan Regional Library District,Westside Learning Lab,BKO031,67,(250) 494-5591,#216 - 525 Hwy 97 S,West Kelowna,BC,V1Z 4C9,49.878683,-119.536123,"28,484","128,784","39,626","14,200","67,470",58,1,928,129,36,"3,540",1,0,103,2,0,18,,,,,1,No,Yes,315.87,"2,000",250
Pemberton & District Public Library,Pemberton & District Public Library,BPE001,22,(250) 542-7610,7390 Cottonwood Street,Pemberton,BC,V0N 2L0,50.31883381,-122.8005455,"108,412","490,163","178,402","33,150","229,703",636,8,"8,353",220,58,"8,712",1,0,0,0,0,0,788,,362,"24,410",2,No,No,"2,787.00","2,875",324
Pender Island Public Library,Galiano Island Community Library,BPI001,23,250-768-4369,2540 Sturdies Bay Road,Galiano Island,BC,V0N 1P0,48.88571211,-123.3352287,"49,789","225,109","85,394","17,150","106,642",178,3,"1,216",184,9,"5,891",3,0,24,0,0,0,424,,735,"11,131",1,No,Yes,929,"2,450",300
Pender Island Public Library,Mayne Island Reading Centre Society,BPI002,48,(604) 894-6916,411 Naylor Road,Mayne Island,BC,V0N 2J2,48.85050627,-123.2993943,18394,78985,33484,9750,88178,139,6,1259,215,7,3499,0,6,183,12,0,43,1976,0,3197,2464,1,,,375,2400,346
Pender Island Public Library,Pender Island Public Library,BPI003,64,(250) 539-2141 ,4407 Bedwell Harbour Road,Pender Island,BC,V0N 2M0,48.79860058,-123.2824514,"12,791","12,724","2,126","2,142","9,486",84,1,664,4,5,210,2,0,20,0,0,0,0,0,0,240,0,No,No,241.55,765,204
Pender Island Public Library,Piers Island Library,BPI004,64,(250) 539-2597,c/o Box 2223,Sidney,BC,V8L 3S8,48.70780271,-123.4189482,"8,000","9,279","3,086","3,315","5,457",56,4,376,33,2,363,0,0,0,0,0,0,0,0,0,0,0,No,No,135.6,612,153
Pender Island Public Library,Saturna Branch Library,BPI005,64,(250) 629-3722,140 East Point Road,Saturna Island,BC,V0N 2Y0,48.79439924,-123.1895628,"17,768","26,887","7,296","3,264","19,380",112,0,"2,073",62,0,614,0,0,0,0,0,0,0,0,"1,645",856,0,No,No,316.2,"1,226",206
Penticton Public Library,Penticton Public Library,BP001,64,n/a,785 Main Street,Penticton,BC,V2A 5E3,49.491202,-119.588557,"1,048",325,55,51,"1,428",2,0,28,1,0,3,0,0,0,0,0,0,0,0,0,0,0,No,Yes,9.3,104,51
Port Moody Public Library,Port Moody Public Library,BPMP001,64,(250) 539-5312,100 Newport Drive,Port Moody,BC,V3H 3E1,49.28260969,-122.8298572,"6,109","4,326",276,"1,173","2,091",0,0,0,1,0,6,0,0,0,0,0,0,0,0,0,0,0,No,Yes,86.5,459,102
Pouce Coupe Public Library,Pouce Coupe Public Library,BPOC001,67,(250) 770-7787,5010 - 52nd Avenue,Pouce Coupe,BC,V0C 2C0,55.71832209,-120.1318219,100714,248012,99720,29257,222423,70,0,1738,241,43,6126,31,0,180,2,1,28,9166,8592,,9467,2,No,Yes,1242,2586,319
Powell River Public Library,Powell River Public Library,BPRDP001,43,(604) 469-4575,4411 Michigan Avenue,Powell River,BC,V8A 2S3,49.84586785,-124.5220301,84484,579564,364603,19995,320378,279,15,5351,278,98,24416,11,7,427,57,0,1370,14975,3287,0,13879,2,No,No,1161,3542,345
Prince George Public Library,Bob Harkins Library,BPG001,59,(250) 786-5765,887 Dominion Street,Prince George,BC,V2L 5L1,53.91231962,-122.7487642,27610,2774,1914,1550,152,2,1,314,3,0,169,2,0,242,0,0,0,0,0,2020,902,2,No,Yes,126,1850,297
Prince George Public Library,Nechako Branch,BPG002,47,(604) 485-4796,6547 Hart Highway,Prince George,BC,V2K 3A4,53.98843412,-122.7870732,52517,173969,43673,13700,148017,110,113,3570,157,16,3473,89,9,1083,1,0,20,3570,1832,364,16218,2,No,Yes,1619.3,2910,348
Prince Rupert Library,Prince Rupert Library,BPR001,57,(250) 563-9251,101-6th Avenue West,Prince Rupert,BC,V8J 1Y9,54.31290779,-130.3178105,"138,579","525,977","167,106","57,695","244,059",318,131,"7,611",427,30,"12,509",145,6,"1,611",2,0,8,"15,253","1,950","1,950","54,458",3,No,No,"3,412.00","3,071",331
Radium Hot Springs Public Library,Radium Hot Springs Public Library,BRHP001,57,(250) 962-9710,Unit #2  Radium Plaza Main Street West,Radium Hot Springs,BC,V0A 1M0,50.61854281,-116.0729075,"25,748","90,622","32,705","10,400","65,086",24,0,137,96,0,"1,038",1,0,6,0,0,0,0,0,0,"8,608",1,No,Yes,426,"2,577",288
Richmond Public Library,Brighouse (Main) Branch,BRI001,52,(250) 624-1345,100 - 7700 Minoru Gate,Richmond,BC,V6Y 1R8,49.16423552,-123.1414342,65843,51264,15266,1591,54407,153,0,1211,194,0,1697,0,0,0,23,0,60,3640,2500,0,13100,2,No,No,1290,2649,326
Richmond Public Library,Cambie Branch,BRI002,6,(250) 347-2434,150 - 11590 Cambie Road,Richmond,BC,V6X 3Z5,49.18378123,-123.0947413,7100,3165,1254,1700,3400,4,0,54,5,0,165,0,0,0,0,0,0,0,0,1720,0,1,No,Yes,1055,1011,211
Richmond Public Library,Hamilton Community Centre,BRI005,38,(604) 231-6422,5140 Smith Drive,Richmond,BC,V6V 2W5,49.175932,-122.965399,"250,962","1,472,944","841,828","80,882","969,186","1,388",112,"31,070",909,54,"47,655",147,16,"2,006",112,1,"1,821","39,738","5,772",0,"96,610",4,No,No,"4,584.95","3,811",352
Richmond Public Library,Ironwood Branch,BRI003,38,(604) 273-2223,11688 Steveston Hwy,Richmond,BC,V7A 1N6,49.13193635,-123.0929562,"35,488","177,077","103,360","7,354","102,100",74,0,624,253,0,"3,903",5,0,34,0,0,0,0,"3,647",0,"7,394",2,No,No,437.76,"3,413",351
Richmond Public Library,Steveston Branch,BRI004,38,(604) 231-6468,4111 Moncton Street,Richmond,BC,V7E 3A8,49.12554096,-123.1787262,"44,129","239,061","132,910","11,563","167,569",15,0,116,305,0,"5,287",0,0,0,2,0,5,0,"2,198",0,"8,230",2,No,No,"1,093.93","3,652",351
Rossland Public Library Association,Rossland Public Library Association,BR001,38,(604) 274-2012,2180 Columbia Avenue,Rossland,BC,V0G 1Y0,49.07713324,-117.7974651,"45,747","307,309","178,824","18,803","206,295",83,0,"1,164",435,0,"16,350",0,0,0,0,0,0,0,"3,639",0,"7,095",2,No,No,364.09,"3,433",351
Salmo Public Library,Salmo Public Library,BSA001,20,(250) 362-7611,106 - 4th Street,Salmo,BC,V0G 1Z0,49.19461332,-117.2789707,15107,31445,13103,,35389,16,0,245,67,17,1667,0,0,0,0,0,0,0,0,2503,2466,1,No,No,321,1536,133
Salt Spring Island Public Library,Salt Spring Island Public Library,BGSI001,8,(250) 357-2312,129 McPhillips Avenue,Salt Spring Island,BC,V8K 2T6,48.85239764,-123.5015602,19505,21727,5850,3692,25682,90,27,1517,88,21,1649,5,2,45,0,0,0,0,1456,1300,572,2,No,Yes,410,1400,260
Sechelt Public Library,Sechelt Public Library,BSE001,64,(250) 537-4666,5797 Cowrie Street,Sechelt,BC,V0N 3A0,49.47213899,-123.7631326,66300,162422,51735,32188,213750,466,24,7556,161,35,5190,90,2,2284,0,0,0,3730,1192,0,3575,1,No,Yes,1160,2104,300
Smithers Public Library,Smithers Public Library,BS001,46,(604) 885-3260,3817 Alfred Avenue,Smithers,BC,V0J 2N0,54.77853172,-127.175209,47534,155115,43426,22150,114050,147,0,2559,34,0,468,5,0,17,0,0,0,2016,3465,0,8951,2,No,Yes,517.4,2250,309
Sparwood Public Library,Sparwood Public Library,BSPA001,54,(250) 847-3043,110 Pine Ave,Sparwood,BC,V0B 2G0,49.73418006,-114.8821618,34504,85999,42997,4140,74860,81,17,3925,153,13,7624,23,0,270,0,0,0,902,1750,766,4485,2,No,No,1280,2057,287
Squamish Public Library,Squamish Public Library,BSQ001,5,(250) 425-2299,37907 - 2nd Avenue,Squamish,BC,V8B 0A7,49.69754269,-123.1563179,25105,20641,5201,115,17000,2,,268,3,1,933,3,,523,,,,,,2300,3500,,No,No,433,2200,
Stewart Public Library,Stewart Public Library,BSP001,48,(604) 892-3110,824 A Main Street,Stewart,BC,V0T 1W0,55.9357944,-129.9942544,50727,175945,84782,7430,151466,48,31,2136,399,31,11420,40,0,371,0,0,,2611,0,5287,14624,3,No,No,1045,2800,350
Surrey Public Library,City Centre Branch,BSUR001,82,(250) 636-2380,10350 University Drive,Surrey,BC,V3T 4B8,49.19045567,-122.8494277,18062,2359,938,1550,4507,2,0,116,3,2,348,0,0,60,0,0,0,0,1481,0,455,1,No,Yes,125.5,980,300
Surrey Public Library,Cloverdale Branch,BSUR002,36,(604) 598-7420 ,5642 - 176A Street,Surrey,BC,V3S 4G9,49.10483931,-122.7332399,"140,423","412,329","235,819","96,434","599,573",232,92,"6,156",525,78,"31,047",109,6,"2,672",47,2,813,"26,068","15,483",,"39,707",9,Yes,No,"7,153.50","3,548",346
Surrey Public Library,Fleetwood Branch,BSUR003,36,(604) 598-7320,15996 - 84th Avenue,Surrey,BC,V4N 0W1,49.1552299,-122.7796823,"59,029","348,116","206,020","39,939","161,070",131,28,"1,537",253,76,"16,223",22,4,698,0,0,0,"6,822","4,186",,"10,728",2,No,No,"1,022.00","3,422",346
Surrey Public Library,Guildford Branch,BSUR004,36,(604) 598-7340,15105 - 105th Avenue,Surrey,BC,V3R 7G8,49.19349929,-122.8033476,"78,709","416,160","292,744","51,532","257,985",71,10,"1,776",637,42,"23,889",45,28,"2,805",21,0,247,"6,652","3,419",,"12,034",2,No,Yes,"1,236.00","3,422",346
Surrey Public Library,Newton Branch,BSUR005,36,604) 598-7360,13795 - 70th Avenue,Surrey,BC,V3W 0E1,49.13032493,-122.8396773,"142,267","705,634","456,705","79,924","504,166",356,6,"6,319",542,95,"44,157",89,14,"2,599",72,10,863,"16,264","20,427",,"34,876",5,No,Yes,"2,899.00","3,422",346
Surrey Public Library,Ocean Park Branch,BSUR006,36,(604) 598-7400,12854 - 17th Avenue,Surrey,BC,V4A 1T5,49.03254175,-122.8660563,"98,077","421,363","272,084","57,330","266,292",155,27,"1,426",357,64,"21,396",39,12,"1,765",19,16,537,"7,963","5,916",,"14,524",3,No,No,"1,366.00","3,422",346
Surrey Public Library,Port Kells Branch,BSUR007,36,(604) 502-6304,18885 - 88th Avenue,Surrey,BC,V3S 5X7,49.16305867,-122.6996606,"44,610","261,573","140,974","15,782","198,926",703,2,"10,131",199,19,"8,758",23,1,361,5,,35,"3,868","1,771",,"8,772",2,No,No,604,"3,422",346
Surrey Public Library,Semiahmoo Branch,BSUR008,36,(604) 598-7440,1815 - 152nd Street,Surrey,BC,V4A 9Y9,49.03508303,-122.8016624,"12,966","25,077","12,351","1,599","8,281",25,,149,96,2,735,1,0,14,0,0,0,,"1,694","1,694","1,241",1,No,No,111,"1,284",257
Surrey Public Library,Strawberry Hill Branch,BSUR009,36,(604) 592-6900,7399 - 122nd Street,Surrey,BC,V3W 5J2,49.13747132,-122.8852643,"104,224","525,713","318,509","46,995","421,408",221,3,"1,831",262,53,"13,421",35,3,"1,000",6,0,93,"6,385","4,963",,"13,577",3,Yes,Yes,"2,062.00","3,422",346
Taylor Public Library,Taylor Public Library,BTA001,36,(604) 501-5836,10008 - 104 Ave,Taylor,BC,V0C 2K0,56.153335,-120.683744,"66,560","322,346","214,594","35,620","267,917",153,6,928,310,25,"11,489",16,4,720,5,1,81,"4,360","4,657",,"11,360",3,No,No,"1,041.00","3,422",346
Terrace Public Library,Terrace Public Library,BTE001,60,(250) 789-9878,4610 Park Avenue,Terrace,BC,V8G 1V6,54.518129,-128.587312,9299,2365,1168,750,1832,27,1,81,31,3,252,23,2,6,0,0,0,0,0,1370,951,1,No,No,1664,1706,250
Thompson Nicola Regional Library,Ashcroft Branch,BKCT002,82,(250) 638-8177,201 Brink Street,Ashcroft,BC,V0K 1A0,50.72495627,-121.2811964,56799,115704,40672,15260,144277,36,72,767,80,11,5956,37,3,331,0,0,0,1820,1456,2570,19071,2,No,Yes,1350,3124,345
Thompson Nicola Regional Library,Barriere Branch,BKCT003,74,(250) 453-9042,4511 Barriere Town Road,Barriere,BC,V0E 1E0,51.17942674,-120.1254436,"14,399","29,084","4,632","6,171","11,255",136,10,"1,159",31,1,359,4,0,4,0,1,0,,,722,"1,079",1,No,No,334,"1,352",256
Thompson Nicola Regional Library,Blue River Branch,BKCT004,73,(250) 672-5811,829 Cedar Street,Blue River,BC,V0E 1J0,52.10511152,-119.3074181,"14,027","31,736","4,473","3,300","13,419",15,1,412,39,2,623,0,0,0,0,0,0,,,561,"1,242",1,No,No,313,"1,352",256
Thompson Nicola Regional Library,Cache Creek Branch,BKCT006,73,(250) 673-8235,1390 Quartz Road,Cache Creek,BC,V0K 1H0,50.80687621,-121.324933,"3,742","3,818",785,546,"1,590",15,0,62,29,0,243,26,0,63,0,0,0,,,,787,1,No,No,94,816,204
Thompson Nicola Regional Library,Chase Branch,BKCT007,n/a,1-855-552-2665,614 Shuswap Avenue,Chase,BC,V0E 1M0,50.818971,-119.690258,"9,954","28,902","8,099","6,382","7,640",,2,503,,,,,,,,,,,"1,532",,"2,125",0,No,Yes,0,641,180
Thompson Nicola Regional Library,Clearwater Branch,BKCT008,74,(250) 457-9953,422 Murtle Crescent,Clearwater,BC,V0E 1N0,51.6497,-120.038295,"8,169","11,795","2,150","3,426","6,042",67,0,344,9,0,65,0,0,0,0,0,0,,,,854,1,No,No,130,816,204
Thompson Nicola Regional Library,Clinton Branch,BKCT009,73,(250) 679-3331,1506 Tingley Street,Clinton,BC,V0K 1K0,51.09187533,-121.5836092,"13,276","36,343","8,076","11,181","15,674",51,1,225,76,0,794,2,0,11,1,0,6,,,685,"1,255",1,No,No,308,"1,560",256
Thompson Nicola Regional Library,Kamloops Branch,BKCT010,73,(250) 674-2543,100 - 465 Victoria Street,Kamloops,BC,V2C 2A9,50.67556777,-120.3302902,"15,287","43,885","10,564","3,596","14,121",78,0,"48,332",35,0,264,0,0,0,0,0,0,,,760,"1,366",1,No,No,284,"1,560",256
Thompson Nicola Regional Library,Logan Lake Branch,BKCT011,74,(250) 459-7752,70 - 150 Opal Dr.,Logan Lake,BC,V0K 1W0,50.49259364,-120.8159635,"8,163","10,949","1,551","1,398","4,597",32,0,253,13,0,52,7,0,53,0,0,0,,,,846,1,No,No,184,816,204
Thompson Nicola Regional Library,Lytton Branch,BKCT012,73,(250) 372-5145,121 Fourth Street,Lytton,BC,V0K 1Z0,50.231335,-121.581809,"83,979","224,627","98,714","64,922","139,456",126,24,"1,122",229,117,"11,579",0,7,35,0,0,0,"3,250","1,581",,"18,426",3,No,Yes,"1,765.00","2,806",335
Thompson Nicola Regional Library,Merritt Branch,BKCT013,73,(250) 523-6745,1691 Garcia Street,Merritt,BC,V1K 1B8,50.108473,-120.788262,"14,677","29,703","9,134","15,599","15,387",51,9,422,79,0,933,1,0,2,0,0,0,,,689,"1,192",1,No,No,186,"1,560",256
Thompson Nicola Regional Library,North Kamloops Branch,BKCT014,74,(250) 455-2521,693 Tranquille Road,Kamloops,BC,V2B 3H7,50.69691983,-120.3619577,"6,715","8,343","1,962","1,724","5,315",18,0,40,29,0,90,0,0,0,0,0,0,,,,862,1,No,Yes,100,816,204
Thompson Nicola Regional Library,Savona Branch,BKCT016,58,(250) 378-4737,60 Savona Street,Savona,BC,V0K 2J0,50.75374359,-120.8423367,"31,541","95,908","24,211","28,392","47,391","2,889",8,"1,950",861,0,"3,392",26,0,64,1,0,5,"1,485",,,"5,580",1,No,No,728,"2,096",256
Trail & District Public Library,Trail & District Public Library,BT001,73,(250) 554-1124,1051 Victoria Street,Trail,BC,V1R 3T3,49.09481565,-117.7059787,"70,564","307,031","80,466","60,735","149,901",183,19,29,299,18,"10,116",13,1,93,1,0,12,"1,623","1,187",,"15,451",2,Yes,Yes,"1,271.00","2,737",301
Tumbler Ridge Public Library,Tumbler Ridge Public Library,BTR001,73,1-800-552-2665,340 Front Street,Tumbler Ridge,BC,V0C 2W0,55.12531251,-121.0022213,"4,388","4,634",910,603,,3,14,40,14,35,"2,174",7,7,186,0,0,0,"2,968",,,"3,256",0,Yes,Yes,634,,
Valemount Public Library,Valemount Public Library,BVALE001,73,(250) 373-2666,1090A Main Street,Valemount,BC,V0E 2Z0,52.83586561,-119.2621285,"6,994","9,670","3,493","3,946","4,522",34,0,173,111,0,"1,315",4,0,22,0,0,0,,,,"1,017",1,No,No,130,816,204
Vancouver Island Regional Library,Bella Coola Branch,BNVI001,73,250-374-8866,450 MacKenzie St,Bella Coola,BC,V0T 1C0,52.37125542,-126.7560101,879,"3,488",910,,,,,,,,,,,,,,,"4,642","1,813",,"17,737",1,No,No,883,,
Vancouver Island Regional Library,Bowser Branch,BNVI002,20,(250) 364-1731,6996 Island Highway West,Bowser,BC,V0R 1G0,49.43500682,-124.6758989,51503,42074,14885,9305,73552,22,8,550,205,28,6247,11,1,39,0,0,0,3640,1248,0,6400,1,Yes,Yes,522,2500,254
Vancouver Island Regional Library,Campbell River Branch,BNVI003,59,(250) 242-4778,1240 Shopper's Row,Campbell River,BC,V9W 2C8,50.02735357,-125.2458353,36895,18297,4304,7147,94775,43,17,1085,527,26,10703,15,3,132,1,3,50,0,1950,,9230,1,No,Yes,450,2958,358
Vancouver Island Regional Library,Chemainus Branch,BNVI004,57,(250) 566-4367,2592 Legion Street,Chemainus,BC,V0R 1K0,48.922375,-123.718821,16375,16701,2824,1550,7450,48,0,235,18,0,186,0,0,0,0,0,0,0,0,3129,397,1,No,No,144,1829,254
Vancouver Island Regional Library,Comox Branch,BNVI005,49,(250) 799-5330,1720 Beaufort Avenue,Comox,BC,V9M 1R7,49.67192435,-124.9238159,"8,589","21,323","7,309","2,590","14,805",1,1,4,34,6,394,3,0,9,,,,0,0,0,"2,060",3,No,Yes,158,"1,109",206
Vancouver Island Regional Library,Cortes Island Branch,BNVI006,69,(250) 757-9570,Sutil Point Road,Mansons Landing,BC,V0P 1K0,50.07413311,-124.9514332,"7,422","19,322","2,667","1,126","13,964",26,0,238,1,0,52,8,0,29,,,,0,4,0,"1,462",2,No,Yes,125,"1,030",206
Vancouver Island Regional Library,Courtenay Branch,BNVI007,72,(250)287-3655,300 - 6th Street,Courtenay,BC,V9N 9V9,49.690244,-124.997863,"50,232","204,681","54,032","27,304","303,207",161,17,"1,297",166,9,"7,134",14,1,797,,,,"5,233","2,334",0,"14,638",3,No,Yes,900,"2,890",353
Vancouver Island Regional Library,Cowichan Branch,BNVI008,79,(250) 246-9471,2687 James Street,Duncan,BC,V9L 2X5,48.78307099,-123.7038924,"9,376","38,136","4,338","2,884","27,655",12,0,87,11,3,376,2,0,20,,,,0,15,0,"3,956",3,No,Yes,113,"1,863",302
Vancouver Island Regional Library,Cowichan Lake Branch,BNVI009,71,(250) 339-2971,38 King George Street,Lake Cowichan,BC,V0R 2G0,48.82463134,-124.0567836,"26,425","159,259","43,030","3,871","89,487",52,0,303,50,5,"1,983",2,0,17,,,,616,8,0,"9,500",2,No,Yes,497,"2,576",302
Vancouver Island Regional Library,Creativity Commons,BNVI041,72,(250) 935-6566,90 Commercial Street,Nanaimo,BC,V9R 5G4,49.16558128,-123.9363796,"5,927","13,435","3,492",864,"4,925",15,1,107,15,2,157,4,0,22,,,,0,0,0,"1,537",1,No,Yes,126,"1,024",205
Vancouver Island Regional Library,Cumberland Branch,BNVI010,71,(250) 334-3369,2724 Dunsmuir Avenue,Cumberland,BC,V0R 1S0,49.61937429,-125.0270294,"58,318","295,890","76,634","21,313","314,549",148,1,680,129,13,"5,312",5,2,135,,,,"5,238",723,0,"16,614",3,No,No,"1,163.00","2,890",353
Vancouver Island Regional Library,Gabriola Island Branch,BNVI011,79,(250) 746-7661,5 - 575 North Road,Gabriola Island,BC,V0R 1X5,49.17311206,-123.844486,"60,866","348,089","90,486","10,895","252,814",139,7,"2,081",203,24,"6,725",13,4,412,,,,"5,202",11,0,"17,133",4,No,Yes,"1,189.00","2,890",353
Vancouver Island Regional Library,Gold River Branch,BNVI012,79,(250) 749-3431,396 Nimpkish Drive,Gold River,BC,V0P 1G0,49.77762522,-126.0521295,"14,368","60,314","15,339","4,950","33,296",74,1,686,131,14,"2,466",4,1,84,,,,"1,785",11,0,"5,341",3,No,Yes,327,"2,261",257
Vancouver Island Regional Library,Hornby Island Branch,BNVI013,71,(250) 336-8121,1765 Sollans Road,Hornby Island,BC,V0R 1Z0,49.53663901,-124.6657783,"11,449","36,070","16,445","4,583","26,161",4,0,89,40,6,"2,343",0,0,0,,,,0,4,0,"4,183",2,No,No,286,"1,799",257
Vancouver Island Regional Library,Ladysmith Branch,BNVI014,68,(250) 247-7878,#3 - 740 First Avenue,Ladysmith,BC,V9G 1A3,48.995162,-123.820195,"14,908","86,440","11,324","4,587","75,103",174,15,"2,897",92,3,"2,389",2,0,34,,,,"1,820",0,0,"7,679",2,No,Yes,293,"2,107",257
Vancouver Island Regional Library,Masset Branch,BNVI015,84,(250) 283-2502,2123 Collison,Masset,BC,V0T 1M0,54.01287412,-132.1499526,"8,606","14,886","4,314","3,243","10,944",54,2,742,34,0,541,6,0,28,,,,0,0,0,"2,002",2,No,Yes,143,"1,050",205
Vancouver Island Regional Library,Nanaimo Harbourfront Branch,BNVI016,68,n/a,90 Commercial Street,Nanaimo,BC,V9R 5G4,49.16558128,-123.9363796,"6,789","26,841","2,990",,,,,,,,,,,,,,,"5,482",0,0,"84,281",11,No,No,"1,058.00",0,0
Vancouver Island Regional Library,Nanaimo North,BNVI040,71,(250) 335-0044,6250 Hammond Bay Road,Nanaimo,BC,V9R 5N3,49.2346941,-124.0384797,"5,592","36,746","4,739",944,,6,0,8,24,1,283,1,0,1,,,,0,0,0,"2,209",2,No,No,77,"1,338",257
Vancouver Island Regional Library,Nanaimo Wellington Branch,BNVI017,68,(250) 245 2322,3032 Barons Road,Nanaimo,BC,V9T 4B5,49.20669644,-124.0050716,"27,237","122,968","27,454","9,448","102,537",43,2,830,39,0,"1,011",4,0,95,,,,"1,830",9,0,"8,219",2,No,Yes,400,"2,576",302
Vancouver Island Regional Library,Parksville Branch,BNVI018,50,(250) 626-3663,100 Jensen Avenue E,Parksville,BC,V9P 2G6,49.31801394,-124.3117095,"9,754","22,772","6,306","1,552","17,144",12,1,245,34,24,971,1,0,10,,,,0,"1,085",0,"1,461",3,No,No,147,"1,030",206
Vancouver Island Regional Library,Port Alberni Branch,BNVI019,68,(250) 753-1154,4245 Wallace Unit B,Port Alberni,BC,V9Y 3Y6,49.25127104,-124.7958207,"43,841","199,282","50,182","39,735","177,338",339,3,"6,755",241,15,"10,481",48,0,"2,606",,,,"13,510","1,433",0,"19,569",10,No,No,"2,323.00","2,890",353
Vancouver Island Regional Library,Port Alice Branch,BNVI020,85,(250) 281-2263,951 Marine Drive,Port Alice,BC,V0N 2N0,50.42872059,-127.4884473,"62,186","345,795","119,920","15,568","211,830",238,0,"2,792",258,20,"12,349",25,9,639,,,,"6,922",0,0,"17,101",3,No,No,"1,636.00","2,890",353
Vancouver Island Regional Library,Port Clements Branch,BNVI021,68,(250) 758-5544,35 Cedar Avenue W.,Port Clements,BC,V0T 1R0,53.68571388,-132.1841078,"30,356","170,100","48,731","11,267","136,322",159,10,"1,169",151,26,"7,117",3,1,141,,,,"3,647",154,0,"12,959",2,No,Yes,399,"2,711",302
Vancouver Island Regional Library,Port Hardy Branch,BNVI022,69,(250) 248-3841,7110 Market,Port Hardy,BC,V0N 2P0,50.721093,-127.492257,"28,270","218,686","41,293","6,202","242,786",162,3,"1,500",131,11,"6,610",61,1,897,,,,"3,570",0,0,"13,277",2,No,Yes,582,"2,890",353
Vancouver Island Regional Library,Port McNeill Branch,BNVI023,70,(250) 723-9511,4 - 1584 Broughton Blvd.,Port McNeill,BC,V0N 2R0,50.58980986,-127.0874781,"34,904","117,156","25,496","3,588","116,684",87,0,684,55,3,"1,358",1,1,62,,,,"2,094",0,0,"10,446",3,No,Yes,697,"2,711",302
Vancouver Island Regional Library,Port Renfrew Branch,BNVI024,85,(250) 284-3554,6633 Deering Road,Port Renfrew,BC,V0S 1K0,48.55707609,-124.4003234,"6,520","8,046","1,659",814,"7,626",28,3,277,32,11,289,3,0,25,,,,0,0,0,"1,976",2,No,Yes,113,"1,030",206
Vancouver Island Regional Library,Quadra Island Branch,BNVI025,50,(250) 557-4402,712 Cramer Road,Quadra Island,BC,V0P 1H0,50.04043292,-125.2090631,"5,480","23,106","3,820",564,"20,576",56,1,481,17,7,375,0,0,0,,,,0,0,0,"1,520",2,No,Yes,93,"1,082",206
Vancouver Island Regional Library,Qualicum Beach Branch,BNVI026,85,(250) 949-6661,660 Primrose Street,Qualicum Beach,BC,V9K 1S9,49.3478762,-124.4440363,"10,364","43,368","8,478","3,104","242,226",52,33,414,85,30,"2,423",6,4,41,,,,140,"1,497",0,"2,816",2,No,Yes,251,"1,491",257
Vancouver Island Regional Library,Queen Charlotte Branch,BNVI027,85,(250) 956-3669,138 Bay,Queen Charlotte City,BC,V0T 1S0,53.25404911,-132.0800801,"9,910","20,872","6,306","4,430","20,052",22,16,986,92,15,"4,264",3,5,454,,,,0,0,0,"2,340",3,No,Yes,143,"1,184",206
Vancouver Island Regional Library,Sandspit Branch,BNVI028,62,(250) 647-5423,Seabreeze Plaza,Sandspit,BC,V0T 1T0,53.24538365,-131.8249815,"5,446","10,317",573,420,"6,702",5,0,35,9,0,51,3,0,6,,,,0,0,0,"1,289",1,No,Yes,67,978,206
Vancouver Island Regional Library,Sayward Branch,BNVI029,72,(250) 285-2216,641C Kelsey Way,Sayward,BC,V0P 1R0,50.3787581,-125.9577873,"16,008","91,494","19,057","2,650","44,308",46,1,526,38,4,624,4,0,32,,,,0,1,0,"5,268",2,No,Yes,298,"1,799",257
Vancouver Island Regional Library,Sidney/North Saanich Branch,BNVI030,69,(250) 752-6121,10091 Resthaven Drive,Sidney,BC,V8L 3G3,48.655232,-123.402751,"31,806","168,418","33,111","7,784","117,480",73,0,562,63,9,"3,285",19,0,48,,,,"1,700",0,0,"10,316",2,No,Yes,636,"2,711",302
Vancouver Island Regional Library,Sointula Branch,BNVI031,50,(250) 559-4518,280 1st Street,Sointula,BC,V0N 3E0,50.63018631,-127.0188295,"12,103","38,184","5,704","2,373","23,544",65,0,505,8,3,337,1,0,35,,,,"1,673",0,0,"2,826",3,No,Yes,111,"1,154",205
Vancouver Island Regional Library,Sooke Branch,BNVI032,50,(250) 637-2247,2065 Anna Marie Road,Sooke,BC,V9Z 0A4,48.37974588,-123.7199249,"4,730","8,184","1,880","1,085","9,964",0,0,0,18,7,159,2,0,7,,,,0,0,0,"1,441",1,No,Yes,56,"1,030",206
Vancouver Island Regional Library,South Cowichan Branch,BNVI033,72,(250) 282-5551,310 - 2720 Mill Bay Road,Mill Bay,BC,V0R 2P0,48.6526,-123.5587,"3,695","8,800","2,078",311,"1,382",9,2,69,17,6,270,3,0,4,,,,0,0,0,"1,586",2,No,Yes,56,"1,030",206
Vancouver Island Regional Library,Tahsis Branch,BNVI034,63,(250) 656-0944,977  Maquinna Drive S,Tahsis,BC,V0P 1X0,49.91528421,-126.6635378,"18,162","167,917","33,268","4,806","103,031",48,35,"1,342",45,26,"7,767",15,3,429,,,,"3,648",0,0,"12,883",4,No,Yes,527,"2,890",353
Vancouver Island Regional Library,Tofino Branch,BNVI035,85,(250) 973-6493,331 Main Street,Tofino,BC,V0R 2Z0,49.15368928,-125.9075657,"8,835","20,908","2,870","1,513","14,716",36,2,343,64,1,588,26,1,334,,,,0,0,0,"1,896",2,No,Yes,82,"1,030",206
Vancouver Island Regional Library,Ucluelet Branch,BNVI036,62,(250) 642-3022,500 Matterson Dr,Ucluelet,BC,V0R 3A0,48.93791074,-125.5506617,"21,990","102,436","32,378","8,797","78,520",79,9,359,57,8,"1,522",7,3,116,,,,"1,430",0,0,"6,762",3,No,No,343,"2,285",302
Vancouver Island Regional Library,Union Bay Branch,BNVI037,79,(250) 743-5436,5527 Island Highway,Union Bay,BC,V0R 3B0,49.58368708,-124.8864621,"21,849","105,733","29,545","6,592","74,602",83,6,813,90,3,"2,208",4,0,57,,,,"1,827",838,0,"7,895",2,No,Yes,307,"2,423",302
Vancouver Island Regional Library,Woss Branch,BNVI039,84,(250) 934-6621,4503B Railway Ave,Woss,BC,V0N 3P0,50.21315813,-126.603505,"5,545","5,706","1,169",450,"2,145",13,0,37,14,0,105,4,2,36,,,,0,0,0,"1,265",2,No,Yes,84,"1,030",206
Vancouver Public Library,Accessible Services,BVA017,70,(250) 725-3713,345 Robson St,Vancouver,BC,V6B 6B3,49.2795264,-123.1153176,"9,562","20,813","8,704",346,"14,889",0,0,0,41,0,574,1,0,5,,,,0,0,0,"1,993",3,No,Yes,93,"1,030",206
Vancouver Public Library,Britannia Branch,BVA001,70,(250) 726-4642,1661 Napier,Vancouver,BC,V5L 4X4,49.27507289,-123.0706567,"7,942","18,512","6,707",317,"14,446",0,0,0,35,0,417,1,0,7,,,,0,0,0,"1,812",1,No,Yes,118,"1,030",206
Vancouver Public Library,Carnegie Branch,BVA002,71,(250) 335-2433,401 Main Street,Vancouver,BC,V6A 2T7,49.28112315,-123.10013,"4,341","7,982","1,179",262,,0,0,0,0,0,0,0,0,0,,,,0,15,0,"1,250",0,No,Yes,27,820,154
Vancouver Public Library,Central Library,BVA003,85,(250) 281-2263,350 West Georgia Street,Vancouver,BC,V6B 6B1,49.27979929,-123.1156599,"3,311","3,981","1,149",190,"7,255",9,1,50,58,1,415,4,0,7,,,,0,0,0,"1,635",2,No,No,42,"1,030",206
Vancouver Public Library,Champlain Heights Branch,BVA004,39,604-331-4100,7110 Kerr Street,Vancouver,BC,V5S 4W2,49.21898096,-123.039461,"19,393","53,290","1,394","42,401","4,455",0,0,0,0,0,0,0,0,0,0,0,0,"1,915","3,640",0,"5,252",0,No,No,271,"1,876",257
Vancouver Public Library,Collingwood Branch,BVA005,39,(604) 665-2222,2985 Kingsway,Vancouver,BC,V5R 5J4,49.23620451,-123.0426838,"48,249","262,188","103,415","14,895","244,712",62,21,"1,248",200,80,"9,704",25,14,659,3,7,272,"4,030","3,076",0,"10,220",1,No,Yes,902,"3,227",354
Vancouver Public Library,Dunbar Branch,BVA006,39,(604) 665-3010,4515 Dunbar Street,Vancouver,BC,V6S 2G7,49.24601083,-123.1856137,"22,552","147,656","3,548","39,269","379,549",32,2,510,0,4,25,0,0,0,0,0,0,"2,340",572,0,"11,364",1,No,Yes,179,"4,357",364
Vancouver Public Library,Firehall Branch,BVA007,39,(604) 331-3603,1455 West 10th Avenue,Vancouver,BC,V6H 1J8,49.26286013,-123.1375926,"1,185,484","1,504,596","332,445","279,034","1,932,314","1,048",47,"24,661","1,049",118,"41,280",139,3,"2,920",221,26,"6,472","135,413","72,194",0,"337,480",30,No,Yes,"36,254.00","3,369",355
Vancouver Public Library,Fraserview Branch,BVA008,39,(604) 665-3955,1950 Argyle Drive,Vancouver,BC,V5P 2A8,49.219645,-123.0667936,"54,060","294,222","134,277","18,898","169,913",99,15,637,185,62,"6,732",3,0,28,23,0,116,"5,817","2,054",0,"9,152",1,No,Yes,775,"2,570",309
Vancouver Public Library,Hastings Branch,BVA009,39,(604) 665-3953,2674 East Hastings Street,Vancouver,BC,V5K 1Z6,49.2809382,-123.0501506,"21,757","100,355","41,320","5,956","71,824",41,7,386,115,53,"6,192",16,0,313,26,1,152,"1,918","2,054",0,"6,696",1,No,No,491,"2,419",309
Vancouver Public Library,Joe Fortes Branch,BVA010,39,(604) 665-3968,870 Denman Street,Vancouver,BC,V6G 2L8,49.29033884,-123.1363983,"40,402","247,583","93,739","9,965","146,219",40,3,331,179,73,"6,535",9,0,53,0,0,0,"3,009","2,704",0,"8,320",1,No,No,595,"2,364",309
Vancouver Public Library,Kensington Branch,BVA011,39,(604) 665-3970,1428 Cedar Cottage Mews,Vancouver,BC,V5N 5Z1,49.24912355,-123.0756208,"30,021","249,790","57,007","12,021","156,843",18,25,424,134,34,"5,806",3,1,27,1,0,30,"3,732","1,690",0,"7,986",1,No,Yes,616,"2,468",309
Vancouver Public Library,Kerrisdale Branch,BVA012,39,(604) 665-3957,2112 West 42nd Avenue,Vancouver,BC,V6M 2B6,49.23333554,-123.1561347,"30,047","174,491","71,687","8,490","131,176",34,13,437,165,53,"6,829",27,0,375,5,1,46,"3,789","1,274",0,"7,072",1,No,No,751,"2,570",309
Vancouver Public Library,Kitsilano Branch,BVA013,39,(604) 665-3959,2425 Macdonald Street,Vancouver,BC,V6K 3Y9,49.26470584,-123.1688145,"44,878","245,313","79,841","10,916","157,116",63,3,367,158,46,"5,425",13,0,112,12,0,30,"3,849","3,666",0,"8,580",1,No,No,823,"2,556",309
Vancouver Public Library,Marpole Branch,BVA014,39,(604) 665-3972,8386 Granville Street,Vancouver,BC,V6P 4Z7,49.21037987,-123.1401094,"39,789","354,014","59,139","32,254","301,991",45,3,590,196,70,"6,565",22,0,196,0,0,0,"4,360","2,938",0,"11,514",2,No,No,419,"3,061",354
Vancouver Public Library,Mount Pleasant Branch,BVA015,39,(604) 665-3961,1 Kingsway,Vancouver,BC,V5T 3H7,49.26438708,-123.1003937,"50,904","253,057","127,069","20,333","162,012",102,8,"1,553",228,74,"10,364",42,3,590,14,2,509,"3,846","1,794",0,"8,394",1,No,Yes,663,"2,573",309
Vancouver Public Library,neca?mat ct Strathcona Branch,BVA023,39,(604) 665-3974,730 East Hastings Street,Vancouver,BC,V6A 1R5,49.28088931,-123.088892,"42,801","312,556","120,519","13,287","220,042",10,11,247,189,25,"6,375",19,0,189,0,0,0,"3,784","2,418",0,"8,996",1,No,Yes,530,"2,601",309
Vancouver Public Library,Oakridge Branch,BVA016,39,(604) 665-3976,191 - 650 West 41st Avenue,Vancouver,BC,V5Z 2M9,49.23069165,-123.1183522,"63,288","532,478","171,223","21,845","315,037",72,22,958,185,37,"10,540",6,0,72,0,0,0,"5,840","3,963",0,"13,130",2,No,No,884,"3,214",354
Vancouver Public Library,Renfrew Branch,BVA018,39,(604) 665-3978,2969 East 22nd Avenue,Vancouver,BC,V5M 2Y3,49.25128217,-123.0427179,"30,969","190,369","57,229","20,824","128,587",48,5,596,167,45,"4,895",19,2,214,39,6,695,"3,703","1,560",0,"7,960",1,No,No,332,"2,468",309
Vancouver Public Library,South Hill Branch,BVA019,39,(604) 665-3962,6076 Fraser Street,Vancouver,BC,V5W 2Z7,49.22952239,-123.0903747,"59,095","413,318","140,662","29,923","397,137",126,9,"1,911",261,103,"16,414",10,4,56,5,3,119,"7,861","4,956",0,"14,768",2,Yes,Yes,"1,023.00","3,931",354
Vancouver Public Library,Terry Salman Branch,BVA021,39,(604) 665-3967,4575 Clancy Loranger Way,Vancouver,BC,V5Y 2M4,49.244207,-123.1076626,"31,477","185,912","40,690","30,196","235,984",44,12,606,147,139,"4,991",20,25,"1,063",0,1,30,,,0,,1,Yes,No,"1,023.00","3,928",352
Vancouver Public Library,Terry Salman Branch,BVA021,39,(604) 665-3964,4575 Clancy Loranger Way,Vancouver,BC,V5Y 2M4,49.254571,-123.107211,"51,047","466,816","290,374","18,946","311,591",26,11,552,286,22,"13,140",10,7,245,5,0,106,"4,004","4,836",0,"15,118",1,Yes,Yes,670,"3,930",354
Vancouver Public Library,West Point Grey Branch,BVA022,39,(604) 665-3980,4480 West 10th Avenue,Vancouver,BC,V6R 2H9,49.26358724,-123.208544,"69,241","462,456","166,419","27,787","338,027",139,18,"1,959",204,57,"12,257",27,3,355,45,0,547,"6,512","2,720",0,"14,237",2,No,Yes,"1,256.00","3,205",354
Vancouver Public Library,West Point Grey Branch,BVA022,39,(604) 665-3982,4480 West 10th Avenue,Vancouver,BC,V6R 2H9,49.26388,-123.20762,"39,340","263,734","105,476","16,074","165,596",27,10,387,148,45,"6,778",24,5,399,5,6,37,"3,799","1,690",0,"8,709",1,No,No,474,"2,461",309
Vanderhoof Public Library,Vanderhoof Public Library,BVDH001,39,(604) 257-8705,230 Stewart Drive,Vanderhoof,BC,V0J 3A0,54.01561941,-124.0055711,"73,173","454,264","214,948","29,337","314,738",79,28,"1,453",262,77,"10,993",49,4,843,26,3,222,"5,836","3,188",0,"13,455",1,No,No,"1,488.00","3,173",354
Vanderhoof Public Library,Vanderhoof Public Library,BVDH001,91,(250) 567-4060,230 Stewart Drive,Vanderhoof,BC,V0J 3A0,54.014086,-124.008737,21042,36220,17916,8100,,44,0,384,139,4,1691,14,0,136,0,0,0,0,0,1980,3840,1,,,616,2080,238
West Vancouver Memorial Library,West Vancouver Memorial Library,BWV001,39,(604) 665-3965,1950 Marine Drive,West Vancouver,BC,V7V 1J8,49.32878771,-123.1655083,"30,076","197,692","84,324","12,696","153,623",46,5,449,109,26,"4,233",40,1,263,25,4,287,"3,745","1,092",0,"8,709",1,No,No,475,"2,486",309
West Vancouver Memorial Library,West Vancouver Memorial Library,BWV001,45,(604) 925-7400,1950 Marine Drive,West Vancouver,BC,V7V 1J8,49.329034,-123.16538,245093,724568,256662,90992,517193,795,50,13495,682,100,20945,32,7,525,264,0,6872,35945,16453,0,32414,5,Yes,No,5117,3207,339
Whistler Public Library,Whistler Public Library,BW001,48,(604) 935-8433,4329 Main Street,Whistler,BC,V0N 1B4,50.117127,-122.956295,38135,174995,76273,37674,212634,237,22,6159,516,94,10949,40,5,306,584,50,1600,8168,1560,0,17922,3,Yes,No,1154,2830,353
